{"fetched_at":"2026-06-14T08:17:21Z","count":15259,"tles":[{"name":"S-NET A","line1":"1 43188U 18014J   26164.23829672  .00004895  00000+0  25344-3 0  9992","line2":"2 43188  97.5389  69.2482 0009715  38.5958 321.5967 15.16645203458168","category":"Other"},{"name":"OOV-CUBE (TUBSAT-30)","line1":"1 60240U 24128F   26164.52889216  .00002174  00000+0  17408-3 0  9995","line2":"2 60240  61.9948 238.3294 0045090 132.8997 227.5893 15.02760687105564","category":"Other"},{"name":"LPNTSAT-001 (IOD-1)","line1":"1 68408U 26065A   26164.58432620  .00002847  00000+0  14075-3 0  9994","line2":"2 68408  97.4027  45.1705 0017070  22.8623 337.3368 15.18521155 11714","category":"Other"},{"name":"S-NET C","line1":"1 43189U 18014K   26164.65050189  .00005010  00000+0  25954-3 0  9995","line2":"2 43189  97.5405  69.7323 0010849  29.3579 330.8261 15.16604983456779","category":"Other"},{"name":"APRIZESAT 2","line1":"1 28366U 04025A   26164.45781139  .00000143  00000+0  58008-4 0  9995","line2":"2 28366  98.1010 330.6494 0104275 261.2419  97.6949 14.38034491151108","category":"Other"},{"name":"SAUDICOMSAT 3","line1":"1 31125U 07012J   26164.44120996  .00000793  00000+0  13733-3 0  9994","line2":"2 31125  98.3143 139.7928 0040382  64.7208 295.8174 14.70699986 24275","category":"Other"},{"name":"APRIZESAT 1","line1":"1 28372U 04025G   26164.57293778  .00000212  00000+0  64262-4 0  9998","line2":"2 28372  98.6304 175.2002 0044886 164.7076 195.5487 14.51775358161386","category":"Other"},{"name":"SAUDICOMSAT 4","line1":"1 31127U 07012L   26164.46522160  .00000440  00000+0  90730-4 0  9999","line2":"2 31127  98.3981 136.9597 0062038 270.1060  89.3033 14.64508918 20744","category":"Other"},{"name":"NANOSAT-1","line1":"1 28493U 04049B   26164.65383082  .00000959  00000+0  13366-3 0  9991","line2":"2 28493  98.2271 301.2285 0002982 318.1628  41.9355 14.80153369154926","category":"Other"},{"name":"SAUDICOMSAT 6","line1":"1 31121U 07012E   26164.46437160  .00000570  00000+0  11857-3 0  9994","line2":"2 31121  98.4098 131.9115 0071321 339.4510  20.3825 14.62554235 19645","category":"Other"},{"name":"SAUDICOMSAT 7","line1":"1 31119U 07012C   26164.49558989  .00000428  00000+0  85790-4 0  9997","line2":"2 31119  98.3777 138.5518 0055036 206.8686 152.9664 14.66107246 21894","category":"Other"},{"name":"SAUDICOMSAT 2","line1":"1 28370U 04025E   26164.53677287  .00000249  00000+0  75833-4 0  9999","line2":"2 28370  98.6641 176.6797 0054135 270.7932  88.7058 14.49979421159570","category":"Other"},{"name":"SAUDICOMSAT 5","line1":"1 31124U 07012H   26164.40603374  .00000541  00000+0  10160-3 0  9997","line2":"2 31124  98.3488 139.2084 0048270 136.3491 224.1547 14.68152101 23041","category":"Other"}]}